ONEWEB-0258             
1 48976U 21060K   25045.50785364  .00000003  00000+0 -26160-4 0  9999
2 48976  87.9130 325.9892 0001842  77.3394 282.7943 13.16591997175425
ONEWEB-0259             
1 48977U 21060L   25045.50151667 -.00000294  00000+0 -80362-3 0  9999
2 48977  87.9130 325.9748 0002009  77.8547 282.2809 13.16593958176748
ONEWEB-0260             
1 48978U 21060M   25045.49280578  .00000028  00000+0  40573-4 0  9996
2 48978  87.9130 326.0063 0001379  93.2809 266.8479 13.16593387175435
ONEWEB-0261             
1 48979U 21060N   25045.46274215  .00000149  00000+0  35532-3 0  9997
2 48979  87.9134 326.0123 0001989  93.2688 266.8670 13.16594624175482
ONEWEB-0262             
1 48980U 21060P   25045.51894808 -.00000096  00000+0 -28471-3 0  9998
2 48980  87.9129 325.9585 0002051  75.9630 284.1729 13.16594430175453
ONEWEB-0263             
1 48981U 21060Q   25045.47460215  .00000104  00000+0  23892-3 0  9995
2 48981  87.9134 325.9910 0002116  85.6723 274.4650 13.16592294175412
ONEWEB-0264             
1 48982U 21060R   25045.51181820 -.00000200  00000+0 -55613-3 0  9998
2 48982  87.9130 325.9928 0001770  81.0660 279.0672 13.16593740175426
ONEWEB-0266             
1 48984U 21060T   25045.30519611  .00000120  00000+0  28111-3 0  9992
2 48984  87.9129 326.0054 0001838  75.6398 284.4937 13.16593712175388
